start=new Date('2022-03-25T00:00:00.000Z').valueOf();
sats=[{"SEMIMAJOR_AXIS":"6925.370","CENTER_NAME":"EARTH","OBJECT_NAME":"STARLINK-1825","MEAN_MOTION_DOT":"0.00000942","RCS_SIZE":"LARGE","EPHEMERIS_TYPE":"0","COUNTRY_CODE":"US","LAUNCH_DATE":"2020-10-18","MEAN_MOTION":"15.06393044","INCLINATION":"53.0552","ARG_OF_PERICENTER":"72.6741","PERIOD":"95.593","RA_OF_ASC_NODE":"266.9547","ECCENTRICITY":"0.00014150","OBJECT_TYPE":"PAYLOAD","PERIAPSIS":"546.255","CLASSIFICATION_TYPE":"U","TIME_SYSTEM":"UTC","DECAY_DATE":null,"REF_FRAME":"TEME","MEAN_ELEMENT_THEORY":"SGP4","OBJECT_ID":"2020-073BE","BSTAR":"0.00008216100000","SITE":"AFETR","APOAPSIS":"548.215","NORAD_CAT_ID":"46722","MEAN_ANOMALY":"287.4403","TLE_LINE1":"1 46722U 20073BE  22083.91461321  .00000942  00000-0  82161-4 0  9992","TLE_LINE2":"2 46722  53.0552 266.9547 0001415  72.6741 287.4403 15.06393044 79481","EPOCH":"2022-03-24T21:57:02.581344","ELEMENT_SET_NO":"999","GP_ID":"199588909","FILE":"3372664","MEAN_MOTION_DDOT":"0.0000000000000","REV_AT_EPOCH":"7948"},{"REV_AT_EPOCH":"7952","MEAN_MOTION_DDOT":"0.0000000000000","FILE":"3373054","GP_ID":"199620774","ELEMENT_SET_NO":"999","EPOCH":"2022-03-24T14:36:29.248704","TLE_LINE2":"2 46723  53.0535 228.3375 0001436  76.8768 283.2381 15.06398817 79529","TLE_LINE1":"1 46723U 20073BF  22083.60867186 -.00000113  00000-0  11329-4 0  9997","MEAN_ANOMALY":"283.2381","NORAD_CAT_ID":"46723","SITE":"AFETR","APOAPSIS":"548.212","BSTAR":"0.00001132900000","OBJECT_ID":"2020-073BF","MEAN_ELEMENT_THEORY":"SGP4","REF_FRAME":"TEME","DECAY_DATE":null,"TIME_SYSTEM":"UTC","CLASSIFICATION_TYPE":"U","ECCENTRICITY":"0.00014360","OBJECT_TYPE":"PAYLOAD","PERIAPSIS":"546.223","RA_OF_ASC_NODE":"228.3375","PERIOD":"95.592","ARG_OF_PERICENTER":"76.8768","INCLINATION":"53.0535","MEAN_MOTION":"15.06398817","LAUNCH_DATE":"2020-10-18","EPHEMERIS_TYPE":"0","COUNTRY_CODE":"US","MEAN_MOTION_DOT":"-0.00000113","RCS_SIZE":"LARGE","OBJECT_NAME":"STARLINK-1826","CENTER_NAME":"EARTH","SEMIMAJOR_AXIS":"6925.352"},{"NORAD_CAT_ID":"46725","MEAN_ANOMALY":"287.9126","APOAPSIS":"548.272","SITE":"AFETR","REF_FRAME":"TEME","BSTAR":"0.00012062000000","OBJECT_ID":"2020-073BH","MEAN_ELEMENT_THEORY":"SGP4","DECAY_DATE":null,"TIME_SYSTEM":"UTC","MEAN_MOTION_DDOT":"0.0000000000000","REV_AT_EPOCH":"7900","GP_ID":"199619522","FILE":"3373054","ELEMENT_SET_NO":"999","TLE_LINE2":"2 46725  53.0545 267.1129 0001534  72.2030 287.9126 15.06401392 79005","TLE_LINE1":"1 46725U 20073BH  22083.87774999  .00001516  00000-0  12062-3 0  9998","EPOCH":"2022-03-24T21:03:57.599136","RCS_SIZE":"LARGE","MEAN_MOTION_DOT":"0.00001516","OBJECT_NAME":"STARLINK-1828","SEMIMAJOR_AXIS":"6925.344","CENTER_NAME":"EARTH","CLASSIFICATION_TYPE":"U","RA_OF_ASC_NODE":"267.1129","PERIOD":"95.592","ECCENTRICITY":"0.00015340","OBJECT_TYPE":"PAYLOAD","PERIAPSIS":"546.147","INCLINATION":"53.0545","MEAN_MOTION":"15.06401392","ARG_OF_PERICENTER":"72.2030","COUNTRY_CODE":"US","EPHEMERIS_TYPE":"0","LAUNCH_DATE":"2020-10-18"},{"RCS_SIZE":"LARGE","MEAN_MOTION_DOT":"0.00001773","OBJECT_NAME":"STARLINK-1829","SEMIMAJOR_AXIS":"6925.355","CENTER_NAME":"EARTH","CLASSIFICATION_TYPE":"U","PERIOD":"95.592","RA_OF_ASC_NODE":"252.3140","OBJECT_TYPE":"PAYLOAD","PERIAPSIS":"545.485","ECCENTRICITY":"0.00025060","MEAN_MOTION":"15.06397774","INCLINATION":"53.0534","ARG_OF_PERICENTER":"39.7693","COUNTRY_CODE":"US","EPHEMERIS_TYPE":"0","LAUNCH_DATE":"2020-10-18","NORAD_CAT_ID":"46726","MEAN_ANOMALY":"320.3479","SITE":"AFETR","APOAPSIS":"548.956","REF_FRAME":"TEME","MEAN_ELEMENT_THEORY":"SGP4","OBJECT_ID":"2020-073BJ","BSTAR":"0.00013790000000","TIME_SYSTEM":"UTC","DECAY_DATE":null,"MEAN_MOTION_DDOT":"0.0000000000000","REV_AT_EPOCH":"7920","GP_ID":"199620272","FILE":"3373054","ELEMENT_SET_NO":"999","TLE_LINE1":"1 46726U 20073BJ  22083.83674327  .00001773  00000-0  13790-3 0  9993","TLE_LINE2":"2 46726  53.0534 252.3140 0002506  39.7693 320.3479 15.06397774 79209","EPOCH":"2022-03-24T20:04:54.618528"},{"SITE":"AFETR","APOAPSIS":"548.307","MEAN_ANOMALY":"296.0803","NORAD_CAT_ID":"46727","TIME_SYSTEM":"UTC","DECAY_DATE":null,"OBJECT_ID":"2020-073BK","MEAN_ELEMENT_THEORY":"SGP4","BSTAR":"0.00023148000000","REF_FRAME":"TEME","FILE":"3373054","GP_ID":"199620524","REV_AT_EPOCH":"7955","MEAN_MOTION_DDOT":"0.0000000000000","EPOCH":"2022-03-24T19:01:52.468032","TLE_LINE1":"1 46727U 20073BK  22083.79296838  .00003168  00000-0  23148-3 0  9994","TLE_LINE2":"2 46727  53.0551 227.4987 0001593  64.0350 296.0803 15.06403287 79552","ELEMENT_SET_NO":"999","OBJECT_NAME":"STARLINK-1830","MEAN_MOTION_DOT":"0.00003168","RCS_SIZE":"LARGE","CENTER_NAME":"EARTH","SEMIMAJOR_AXIS":"6925.338","OBJECT_TYPE":"PAYLOAD","ECCENTRICITY":"0.00015930","PERIAPSIS":"546.100","RA_OF_ASC_NODE":"227.4987","PERIOD":"95.592","CLASSIFICATION_TYPE":"U","LAUNCH_DATE":"2020-10-18","EPHEMERIS_TYPE":"0","COUNTRY_CODE":"US","ARG_OF_PERICENTER":"64.0350","MEAN_MOTION":"15.06403287","INCLINATION":"53.0551"},{"FILE":"3372654","GP_ID":"199589457","REV_AT_EPOCH":"8086","MEAN_MOTION_DDOT":"0.0000163450000","EPOCH":"2022-03-24T13:21:24.018336","TLE_LINE1":"1 46728U 20073BL  22083.55652799  .00117416  16345-4  34254-3 0  9996","TLE_LINE2":"2 46728  53.0359 165.2377 0001468 356.4423   3.6592 15.92708716 80864","ELEMENT_SET_NO":"999","APOAPSIS":"295.688","SITE":"AFETR","MEAN_ANOMALY":"3.6592","NORAD_CAT_ID":"46728","TIME_SYSTEM":"UTC","DECAY_DATE":null,"MEAN_ELEMENT_THEORY":"SGP4","OBJECT_ID":"2020-073BL","BSTAR":"0.00034254000000","REF_FRAME":"TEME","ECCENTRICITY":"0.00014680","OBJECT_TYPE":"PAYLOAD","PERIAPSIS":"293.729","RA_OF_ASC_NODE":"165.2377","PERIOD":"90.412","CLASSIFICATION_TYPE":"U","LAUNCH_DATE":"2020-10-18","COUNTRY_CODE":"US","EPHEMERIS_TYPE":"0","ARG_OF_PERICENTER":"356.4423","MEAN_MOTION":"15.92708716","INCLINATION":"53.0359","OBJECT_NAME":"STARLINK-1831","RCS_SIZE":"LARGE","MEAN_MOTION_DOT":"0.00117416","CENTER_NAME":"EARTH","SEMIMAJOR_AXIS":"6672.843"},{"MEAN_MOTION_DOT":"0.00005479","RCS_SIZE":"LARGE","OBJECT_NAME":"STARLINK-1848","CENTER_NAME":"EARTH","SEMIMAJOR_AXIS":"6925.323","CLASSIFICATION_TYPE":"U","OBJECT_TYPE":"PAYLOAD","PERIAPSIS":"546.212","ECCENTRICITY":"0.00014100","PERIOD":"95.592","RA_OF_ASC_NODE":"337.0892","ARG_OF_PERICENTER":"61.7935","INCLINATION":"53.0541","MEAN_MOTION":"15.06408346","LAUNCH_DATE":"2020-10-24","COUNTRY_CODE":"US","EPHEMERIS_TYPE":"0","MEAN_ANOMALY":"298.3196","NORAD_CAT_ID":"46740","SITE":"AFETR","APOAPSIS":"548.164","BSTAR":"0.00038637000000","OBJECT_ID":"2020-074B","MEAN_ELEMENT_THEORY":"SGP4","REF_FRAME":"TEME","DECAY_DATE":null,"TIME_SYSTEM":"UTC","REV_AT_EPOCH":"7868","MEAN_MOTION_DDOT":"0.0000000000000","FILE":"3373054","GP_ID":"199619523","ELEMENT_SET_NO":"999","EPOCH":"2022-03-24T21:15:53.602848","TLE_LINE2":"2 46740  53.0541 337.0892 0001410  61.7935 298.3196 15.06408346 78684","TLE_LINE1":"1 46740U 20074B   22083.88603707  .00005479  00000-0  38637-3 0  9993"},{"SEMIMAJOR_AXIS":"6925.328","CENTER_NAME":"EARTH","RCS_SIZE":"LARGE","MEAN_MOTION_DOT":"0.00004107","OBJECT_NAME":"STARLINK-1865","INCLINATION":"53.0549","MEAN_MOTION":"15.06406557","ARG_OF_PERICENTER":"63.2118","EPHEMERIS_TYPE":"0","COUNTRY_CODE":"US","LAUNCH_DATE":"2020-10-24","CLASSIFICATION_TYPE":"U","PERIOD":"95.592","RA_OF_ASC_NODE":"332.0064","OBJECT_TYPE":"PAYLOAD","ECCENTRICITY":"0.00019020","PERIAPSIS":"545.876","REF_FRAME":"TEME","BSTAR":"0.00029438000000","OBJECT_ID":"2020-074C","MEAN_ELEMENT_THEORY":"SGP4","DECAY_DATE":null,"TIME_SYSTEM":"UTC","NORAD_CAT_ID":"46741","MEAN_ANOMALY":"296.9066","SITE":"AFETR","APOAPSIS":"548.511","ELEMENT_SET_NO":"999","TLE_LINE2":"2 46741  53.0549 332.0064 0001902  63.2118 296.9066 15.06406557 78766","TLE_LINE1":"1 46741U 20074C   22083.90308679  .00004107  00000-0  29438-3 0  9993","EPOCH":"2022-03-24T21:40:26.698656","MEAN_MOTION_DDOT":"0.0000000000000","REV_AT_EPOCH":"7876","GP_ID":"199620273","FILE":"3373054"},{"PERIOD":"95.592","RA_OF_ASC_NODE":"331.8383","ECCENTRICITY":"0.00015350","OBJECT_TYPE":"PAYLOAD","PERIAPSIS":"546.144","CLASSIFICATION_TYPE":"U","COUNTRY_CODE":"US","EPHEMERIS_TYPE":"0","LAUNCH_DATE":"2020-10-24","MEAN_MOTION":"15.06402157","INCLINATION":"53.0566","ARG_OF_PERICENTER":"61.5826","OBJECT_NAME":"STARLINK-1872","RCS_SIZE":"LARGE","MEAN_MOTION_DOT":"0.00001744","SEMIMAJOR_AXIS":"6925.342","CENTER_NAME":"EARTH","GP_ID":"199620525","FILE":"3373054","MEAN_MOTION_DDOT":"0.0000000000000","REV_AT_EPOCH":"7876","TLE_LINE1":"1 46742U 20074D   22083.93994454  .00001744  00000-0  13596-3 0  9991","TLE_LINE2":"2 46742  53.0566 331.8383 0001535  61.5826 298.5317 15.06402157 78765","EPOCH":"2022-03-24T22:33:31.208256","ELEMENT_SET_NO":"999","APOAPSIS":"548.270","SITE":"AFETR","NORAD_CAT_ID":"46742","MEAN_ANOMALY":"298.5317","TIME_SYSTEM":"UTC","DECAY_DATE":null,"REF_FRAME":"TEME","OBJECT_ID":"2020-074D","MEAN_ELEMENT_THEORY":"SGP4","BSTAR":"0.00013596000000"},{"SITE":"AFETR","APOAPSIS":"548.270","NORAD_CAT_ID":"46743","MEAN_ANOMALY":"276.8332","DECAY_DATE":null,"TIME_SYSTEM":"UTC","REF_FRAME":"TEME","BSTAR":"0.00024248000000","OBJECT_ID":"2020-074E","MEAN_ELEMENT_THEORY":"SGP4","GP_ID":"199621275","FILE":"3373054","MEAN_MOTION_DDOT":"0.0000000000000","REV_AT_EPOCH":"7876","TLE_LINE2":"2 46743  53.0546 332.0307 0001555  83.2834 276.8332 15.06406635 78766","TLE_LINE1":"1 46743U 20074E   22083.89571902  .00003333  00000-0  24248-3 0  9998","EPOCH":"2022-03-24T21:29:50.123328","ELEMENT_SET_NO":"999","OBJECT_NAME":"STARLINK-1892","MEAN_MOTION_DOT":"0.00003333","RCS_SIZE":"LARGE","SEMIMAJOR_AXIS":"6925.328","CENTER_NAME":"EARTH","PERIOD":"95.592","RA_OF_ASC_NODE":"332.0307","OBJECT_TYPE":"PAYLOAD","ECCENTRICITY":"0.00015550","PERIAPSIS":"546.116","CLASSIFICATION_TYPE":"U","COUNTRY_CODE":"US","EPHEMERIS_TYPE":"0","LAUNCH_DATE":"2020-10-24","INCLINATION":"53.0546","MEAN_MOTION":"15.06406635","ARG_OF_PERICENTER":"83.2834"}];
